{
    "week": 293,
    "satellites": [
        {
            "Name": "COSMOS 2485 (747)",
            "Line1": "1 39155U 13019A   24325.00902972  .00000018  00000+0  00000+0 0  9999",
            "Line2": "2 39155  65.1153  92.9212 0023399 227.5263 132.2590  2.13104459 90048",
            "SatelliteNumber": "39155",
            "Classification": "U",
            "LaunchYear": "13",
            "LaunchNumber": "019",
            "PieceOfLaunch": "A",
            "EpochYear": "24",
            "EpochDay": 325.00902972,
            "FirstDerivativeMeanMotion": 1.8e-07,
            "SecondDerivativeMeanMotion": "00000+0",
            "BSTAR": "00000+0",
            "SetNumber": "999",
            "Inclination": 65.1153,
            "RAAN": 92.9212,
            "Eccentricity": 0.0023399,
            "ArgumentOfPerigee": 227.5263,
            "MeanAnomaly": 132.259,
            "MeanMotion": 2.13104459,
            "RevolutionNumber": "9004"
        },
        {
            "Name": "COSMOS 2492 (754)",
            "Line1": "1 39620U 14012A   24324.02574086 -.00000056  00000+0  00000+0 0  9995",
            "Line2": "2 39620  65.6071 333.4152 0014249 309.7519  50.1519  2.13103167 82984",
            "SatelliteNumber": "39620",
            "Classification": "U",
            "LaunchYear": "14",
            "LaunchNumber": "012",
            "PieceOfLaunch": "A",
            "EpochYear": "24",
            "EpochDay": 324.02574086,
            "FirstDerivativeMeanMotion": -5.6e-07,
            "SecondDerivativeMeanMotion": "00000+0",
            "BSTAR": "00000+0",
            "SetNumber": "999",
            "Inclination": 65.6071,
            "RAAN": 333.4152,
            "Eccentricity": 0.0014249,
            "ArgumentOfPerigee": 309.7519,
            "MeanAnomaly": 50.1519,
            "MeanMotion": 2.13103167,
            "RevolutionNumber": "8298"
        },
        {
            "Name": "COSMOS 2500 (755)",
            "Line1": "1 40001U 14032A   24325.14157739 -.00000054  00000+0  00000+0 0  9996",
            "Line2": "2 40001  65.5435 333.1703 0008648 219.9343 140.0302  2.13105965 81227",
            "SatelliteNumber": "40001",
            "Classification": "U",
            "LaunchYear": "14",
            "LaunchNumber": "032",
            "PieceOfLaunch": "A",
            "EpochYear": "24",
            "EpochDay": 325.14157739,
            "FirstDerivativeMeanMotion": -5.4e-07,
            "SecondDerivativeMeanMotion": "00000+0",
            "BSTAR": "00000+0",
            "SetNumber": "999",
            "Inclination": 65.5435,
            "RAAN": 333.1703,
            "Eccentricity": 0.0008648,
            "ArgumentOfPerigee": 219.9343,
            "MeanAnomaly": 140.0302,
            "MeanMotion": 2.13105965,
            "RevolutionNumber": "8122"
        },
        {
            "Name": "COSMOS 2501 (702K)",
            "Line1": "1 40315U 14075A   24325.39661959  .00000007  00000+0  00000+0 0  9999",
            "Line2": "2 40315  63.6160 210.2511 0019367 205.8098 154.1718  2.13101393 77629",
            "SatelliteNumber": "40315",
            "Classification": "U",
            "LaunchYear": "14",
            "LaunchNumber": "075",
            "PieceOfLaunch": "A",
            "EpochYear": "24",
            "EpochDay": 325.39661959,
            "FirstDerivativeMeanMotion": 7e-08,
            "SecondDerivativeMeanMotion": "00000+0",
            "BSTAR": "00000+0",
            "SetNumber": "999",
            "Inclination": 63.616,
            "RAAN": 210.2511,
            "Eccentricity": 0.0019367,
            "ArgumentOfPerigee": 205.8098,
            "MeanAnomaly": 154.1718,
            "MeanMotion": 2.13101393,
            "RevolutionNumber": "7762"
        },
        {
            "Name": "COSMOS 2514 (751)",
            "Line1": "1 41330U 16008A   24325.37948578 -.00000053  00000+0  00000+0 0  9990",
            "Line2": "2 41330  65.3369 332.6321 0012723 221.1034 138.8280  2.13102614 68399",
            "SatelliteNumber": "41330",
            "Classification": "U",
            "LaunchYear": "16",
            "LaunchNumber": "008",
            "PieceOfLaunch": "A",
            "EpochYear": "24",
            "EpochDay": 325.37948578,
            "FirstDerivativeMeanMotion": -5.3e-07,
            "SecondDerivativeMeanMotion": "00000+0",
            "BSTAR": "00000+0",
            "SetNumber": "999",
            "Inclination": 65.3369,
            "RAAN": 332.6321,
            "Eccentricity": 0.0012723,
            "ArgumentOfPerigee": 221.1034,
            "MeanAnomaly": 138.828,
            "MeanMotion": 2.13102614,
            "RevolutionNumber": "6839"
        },
        {
            "Name": "COSMOS 2522 (752)",
            "Line1": "1 42939U 17055A   24325.21929114  .00000008  00000+0  00000+0 0  9996",
            "Line2": "2 42939  64.0776 211.4377 0006711 233.4641 126.5523  2.13101924 55740",
            "SatelliteNumber": "42939",
            "Classification": "U",
            "LaunchYear": "17",
            "LaunchNumber": "055",
            "PieceOfLaunch": "A",
            "EpochYear": "24",
            "EpochDay": 325.21929114,
            "FirstDerivativeMeanMotion": 8e-08,
            "SecondDerivativeMeanMotion": "00000+0",
            "BSTAR": "00000+0",
            "SetNumber": "999",
            "Inclination": 64.0776,
            "RAAN": 211.4377,
            "Eccentricity": 0.0006711,
            "ArgumentOfPerigee": 233.4641,
            "MeanAnomaly": 126.5523,
            "MeanMotion": 2.13101924,
            "RevolutionNumber": "5574"
        },
        {
            "Name": "COSMOS 2527 (756)",
            "Line1": "1 43508U 18053A   24325.17867857  .00000019  00000+0  00000+0 0  9990",
            "Line2": "2 43508  65.2752  93.1001 0008299 218.4792 141.4451  2.13102266 50046",
            "SatelliteNumber": "43508",
            "Classification": "U",
            "LaunchYear": "18",
            "LaunchNumber": "053",
            "PieceOfLaunch": "A",
            "EpochYear": "24",
            "EpochDay": 325.17867857,
            "FirstDerivativeMeanMotion": 1.9e-07,
            "SecondDerivativeMeanMotion": "00000+0",
            "BSTAR": "00000+0",
            "SetNumber": "999",
            "Inclination": 65.2752,
            "RAAN": 93.1001,
            "Eccentricity": 0.0008299,
            "ArgumentOfPerigee": 218.4792,
            "MeanAnomaly": 141.4451,
            "MeanMotion": 2.13102266,
            "RevolutionNumber": "5004"
        },
        {
            "Name": "COSMOS 2529 (757)",
            "Line1": "1 43687U 18086A   24324.33888622  .00000019  00000+0  00000+0 0  9994",
            "Line2": "2 43687  64.2933 212.0222 0008000 260.7985  99.1911  2.13101976 47037",
            "SatelliteNumber": "43687",
            "Classification": "U",
            "LaunchYear": "18",
            "LaunchNumber": "086",
            "PieceOfLaunch": "A",
            "EpochYear": "24",
            "EpochDay": 324.33888622,
            "FirstDerivativeMeanMotion": 1.9e-07,
            "SecondDerivativeMeanMotion": "00000+0",
            "BSTAR": "00000+0",
            "SetNumber": "999",
            "Inclination": 64.2933,
            "RAAN": 212.0222,
            "Eccentricity": 0.0008,
            "ArgumentOfPerigee": 260.7985,
            "MeanAnomaly": 99.1911,
            "MeanMotion": 2.13101976,
            "RevolutionNumber": "4703"
        },
        {
            "Name": "COSMOS 2534 (758)",
            "Line1": "1 44299U 19030A   24325.23864414  .00000007  00000+0  00000+0 0  9994",
            "Line2": "2 44299  64.3665 211.9597 0010164 286.3036 178.1817  2.13102063 42696",
            "SatelliteNumber": "44299",
            "Classification": "U",
            "LaunchYear": "19",
            "LaunchNumber": "030",
            "PieceOfLaunch": "A",
            "EpochYear": "24",
            "EpochDay": 325.23864414,
            "FirstDerivativeMeanMotion": 7e-08,
            "SecondDerivativeMeanMotion": "00000+0",
            "BSTAR": "00000+0",
            "SetNumber": "999",
            "Inclination": 64.3665,
            "RAAN": 211.9597,
            "Eccentricity": 0.0010164,
            "ArgumentOfPerigee": 286.3036,
            "MeanAnomaly": 178.1817,
            "MeanMotion": 2.13102063,
            "RevolutionNumber": "4269"
        },
        {
            "Name": "COSMOS 2544 (759)",
            "Line1": "1 44850U 19088A   24325.12286235  .00000019  00000+0  00000+0 0  9990",
            "Line2": "2 44850  65.2620  92.9361 0012597 247.6435 112.2064  2.13102015 38461",
            "SatelliteNumber": "44850",
            "Classification": "U",
            "LaunchYear": "19",
            "LaunchNumber": "088",
            "PieceOfLaunch": "A",
            "EpochYear": "24",
            "EpochDay": 325.12286235,
            "FirstDerivativeMeanMotion": 1.9e-07,
            "SecondDerivativeMeanMotion": "00000+0",
            "BSTAR": "00000+0",
            "SetNumber": "999",
            "Inclination": 65.262,
            "RAAN": 92.9361,
            "Eccentricity": 0.0012597,
            "ArgumentOfPerigee": 247.6435,
            "MeanAnomaly": 112.2064,
            "MeanMotion": 2.13102015,
            "RevolutionNumber": "3846"
        }
    ]
}